0 COSMOS 1974
1 19554U 88092A   13287.71427028  .00000332  00000-0  00000+0 0  1745
2 19554 069.1097 024.8117 5654295 179.9065 212.9440 02.00572069183346
0 COSMOS 1974
1 19554U 88092A   13292.29898681  .00000388  00000-0  00000+0 0  1753
2 19554 069.1149 024.5671 5653237 179.8019 283.3979 02.00577049183431
0 COSMOS 1974
1 19554U 88092A   13294.61171259  .00000408  00000-0  00000+0 0  1760
2 19554 069.1170 024.4438 5652688 179.7482 153.3668 02.00579345183473
